CCSDS_OEM_VERS = 2.0
CREATION_DATE  = 2025-01-31T19:29:07.314
ORIGINATOR     = NASA/JSC/FOD/TOPO

META_START
OBJECT_NAME          = ISS
OBJECT_ID            = 1998-067-A
CENTER_NAME          = Earth
REF_FRAME            = EME2000
TIME_SYSTEM          = UTC
START_TIME           = 2025-01-31T13:00:00.000
USEABLE_START_TIME   = 2025-01-31T13:00:00.000
USEABLE_STOP_TIME    = 2025-02-15T13:00:00.000
STOP_TIME            = 2025-02-15T13:00:00.000
META_STOP

COMMENT Source: This file was produced by the TOPO office within FOD at JSC.
COMMENT Units are in kg and m^2
COMMENT MASS=460400.00
COMMENT DRAG_AREA=1214.80
COMMENT DRAG_COEFF=1.90
COMMENT SOLAR_RAD_AREA=0.00
COMMENT SOLAR_RAD_COEFF=0.00
COMMENT Orbits start at the ascending node epoch
COMMENT ISS first asc. node: EPOCH = 2025-01-31T13:22:00.564 $ ORBIT = 1397 $ LAN(DEG) = -67.75121
COMMENT ISS last asc. node : EPOCH = 2025-02-15T12:21:46.463 $ ORBIT = 1629 $ LAN(DEG) = -141.54933
COMMENT Begin sequence of events
COMMENT TRAJECTORY EVENT SUMMARY:
COMMENT 
COMMENT |       EVENT        |       TIG        | ORB |   DV    |   HA    |   HP    |
COMMENT |                    |       GMT        |     |   M/S   |   KM    |   KM    |
COMMENT |                    |                  |     |  (F/S)  |  (NM)   |  (NM)   |
COMMENT =============================================================================
COMMENT  GMT032 Reboost        032:08:58:00.000             1.8     420.6     407.6
COMMENT                                                    (5.9)   (227.1)   (220.1)
COMMENT 
COMMENT =============================================================================
COMMENT End sequence of events
2025-02-01T09:54:27.242 4323.102010319810 522.569294912689 5211.221716623110 0.49778552292043 7.55486843666212 -1.16911838728291
2025-02-01T09:58:27.243 4284.048253089890 2294.737994297460 4744.174909089220 -0.82135777290651 7.12308412486320 -2.69925537261606
2025-02-01T10:02:27.242 3933.572037116650 3900.092369890770 3931.285356740960 -2.08160277242877 6.17309202678968 -4.03351782060044
2025-02-01T10:06:27.243 3296.955182054700 5221.741369495820 2831.614603531270 -3.19124857718448 4.77321465820428 -5.07438089916797
2025-02-01T10:10:27.242 2420.359760053630 6163.304240775550 1525.250146055820 -4.06911580497824 3.02507881452573 -5.74530463254262
2025-02-01T10:14:27.243 1367.532979479840 6656.094178777980 107.506313714831 -4.65080143859920 1.05643418497941 -5.99679843074764
2025-02-01T10:18:27.242 215.141320838176 6664.282617677050 -1318.098737225310 -4.89375807693169 -0.98840144444571 -5.81046084151931
2025-02-01T10:22:27.243 -952.912806343503 6187.566696738070 -2647.539475188280 -4.78062191829614 -2.95963045636847 -5.20048303393884
2025-02-01T10:26:27.242 -2051.717258120170 5261.090292856060 -3784.005079778430 -4.32033907808639 -4.71354968454953 -4.21235606761867
2025-02-01T10:30:27.243 -3001.586105953780 3952.666837957700 -4644.992963954260 -3.54718509432557 -6.12329086572902 -2.91898064537368
2025-02-01T10:34:27.242 -3733.814991983950 2357.617008612810 -5168.210537591010 -2.51774264415848 -7.08778960523418 -1.41477542202601
2025-02-01T10:38:27.243 -4195.524747064640 591.742581451934 -5315.913318728730 -1.30649995579479 -7.53833272755047 0.19134930644096
2025-02-01T10:42:27.242 -4353.343199815660 -1216.993641635230 -5077.474945781700 -0.00058608791507 -7.44281296998571 1.78360501079229
2025-02-01T10:46:27.243 -4195.738988080800 -2937.542816934500 -4470.102862476410 1.30615117028734 -6.80777144992722 3.24715287194275
2025-02-01T10:50:27.242 -3733.882257712140 -4445.060249303570 -3537.667167089730 2.51944419381126 -5.67813813038604 4.47592422607862
2025-02-01T10:54:27.243 -3000.969120625620 -5629.862286662760 -2347.690936025490 3.55112100675616 -4.13470635876040 5.38007477952150
2025-02-01T10:58:27.242 -2049.963917338930 -6405.477391215960 -986.618931040508 4.32567219697537 -2.28901813929364 5.89283757177890
2025-02-01T11:02:27.243 -949.842275883548 -6715.126332739390 446.414402207665 4.78604919020977 -0.27545773267084 5.97595962645664
2025-02-01T11:06:27.243 219.412258064760 -6536.047350706010 1846.861132720620 4.89820247225206 1.75866919959033 5.62292041090324
2025-02-01T11:10:27.243 1372.705676425600 -5881.261880933960 3112.512663936220 4.65387948238225 3.66441588363335 4.85961122524280
2025-02-01T11:14:27.243 2426.137123042740 -4798.582117002440 4151.079563932220 4.07117237143355 5.30266051074509 3.74223015617009
2025-02-01T11:18:27.243 3303.163590804400 -3366.978343423470 4886.960603446700 3.19286962913700 6.55445075668687 2.35271778332009
2025-02-01T11:22:27.243 3940.144100612650 -1690.685594383920 5266.687993708730 2.08298893658198 7.32940739820308 0.79240941135050
2025-02-01T11:26:27.242 4290.876669870120 108.427622015249 5262.708270258990 0.82194869999273 7.57177574662738 -0.82537873212610
2025-02-01T11:30:27.243 4329.866610749170 1899.650374129880 4875.299198821470 -0.49910375133674 7.26401318506331 -2.38339118393720
2025-02-01T11:34:27.242 4054.158889388910 3552.790468357710 4132.546366521860 -1.78458071189207 6.42799293684990 -3.76849170956227
2025-02-01T11:38:27.243 3483.605220626590 4947.536170894690 3088.392377968100 -2.94113276782302 5.12375622226262 -4.87962335609516
2025-02-01T11:42:27.242 2659.526937999150 5982.219741816130 1818.840820425630 -3.88429749151861 3.44578192016196 -5.63520075543829
2025-02-01T11:46:27.243 1641.805998684800 6581.350312518310 416.480461854133 -4.54486718717293 1.51644235178402 -5.97949247178703
2025-02-01T11:50:27.242 504.537431772421 6701.296947727820 -1016.296319654850 -4.87442873763918 -0.52281819803811 -5.88714400973502
2025-02-01T11:54:27.243 -669.463405428539 6333.571206300690 -2374.910741712920 -4.84917428871122 -2.52252347008224 -5.36539209097309
2025-02-01T11:58:27.242 -1794.811334916570 5505.366766562690 -3560.377394414850 -4.47160116403806 -4.33670333462971 -4.45325779114285
2025-02-01T12:02:27.243 -2789.847521674890 4277.376283465070 -4486.576534231970 -3.76999720594322 -5.83390596044127 -3.21816646127251
2025-02-01T12:06:27.242 -3582.554698980490 2739.139788623120 -5086.444517181040 -2.79585047252523 -6.90655670820093 -1.75045875508197
2025-02-01T12:10:27.243 -4115.667985903360 1002.409241215970 -5316.681586973140 -1.61982324969065 -7.47815278860772 -0.15659322395554
2025-02-01T12:14:27.242 -4350.669755102540 -806.931067527181 -5160.711478505230 -0.32657254043106 -7.50800658481758 1.44847054954350
2025-02-01T12:18:27.243 -4270.473817807510 -2557.801950266370 -4629.795255515580 0.99097077947365 -6.99376046300029 2.94902542428488
2025-02-01T12:22:27.242 -3880.667881906540 -4123.214346647180 -3762.268807497330 2.23786307280358 -5.97172211989784 4.23645331548486
2025-02-01T12:26:27.243 -3209.214328772880 -5389.353412969670 -2620.918710564810 3.32369143137349 -4.51482344331397 5.21684489277136
2025-02-01T12:30:27.242 -2304.575149929000 -6263.873790883960 -1288.597476959680 4.16910178665355 -2.72805708907906 5.81797749364455
2025-02-01T12:34:27.243 -1232.323482928540 -6682.786181233330 137.700559949749 4.71179923495007 -0.74137094560970 5.99505079687868
2025-02-01T12:38:27.242 -70.399320209140 -6615.353952189340 1553.937766390290 4.91175266919796 1.29989606790060 5.73461069872124
2025-02-01T12:42:27.243 1096.653100673050 -6066.442163286380 2856.755219645700 4.75428057480994 3.24632636623856 5.05572455498908
2025-02-01T12:46:27.242 2183.925609864120 -5076.125613988210 3951.134085325290 4.25103897406188 4.95575641528445 4.00834879445708
2025-02-01T12:50:27.243 3112.389839386120 -3716.656929250400 4757.377505119070 3.43902555344490 6.30386893211867 2.66936092945526
2025-02-01T12:54:27.242 3814.653403997870 -2087.060052336850 5216.884582478660 2.37754774369494 7.19321172035240 1.13654206597809
2025-02-01T12:58:27.243 4239.782258531920 -305.838031813918 5296.304221479470 1.14359818025699 7.55978132927202 -0.47874917346331
2025-02-01T13:02:27.242 4356.901830129260 1497.591009668990 4989.863067348950 -0.17362811789334 7.37712097599321 -2.05939442201492
2025-02-01T13:06:27.243 4157.400838236890 3192.169102906170 4319.771481165640 -1.47887130841346 6.65812172148826 -3.49068174683650
2025-02-01T13:10:27.242 3655.595319701100 4654.609861284800 3334.675495561440 -2.67745624366718 5.45432156618382 -4.66831459274046
2025-02-01T13:14:27.243 2887.789573987540 5778.346240702860 2106.251760011540 -3.68191682738090 3.85280000451946 -5.50589829254309
2025-02-01T13:18:27.242 1909.744417302300 6481.414102204640 724.059654510366 -4.41866507679227 1.97024081685111 -5.94178278372548
2025-02-01T13:22:27.243 792.634671101359 6712.571850190200 -711.008362019849 -4.83366186474622 -0.05557493695098 -5.94380828656369
2025-02-01T13:26:27.242 -382.186335886865 6455.170144701220 -2094.184040785100 -4.89670976422626 -2.07603437288036 -5.51212243504475
2025-02-01T13:30:27.243 -1529.238817505220 5728.348704223160 -3324.644752795510 -4.60380044231683 -3.94347774802664 -4.67914831263479
2025-02-01T13:34:27.242 -2565.241111664680 4585.444043505760 -4312.944125012040 -3.97707451342991 -5.52236534342707 -3.50659622314854
2025-02-01T13:38:27.243 -3415.166345739200 3109.870324005900 -4987.473135711740 -3.06268192143419 -6.69904047447888 -2.08041272273227
2025-02-01T13:42:27.242 -4017.593245901620 1408.900935976140 -5299.511036635130 -1.92711722233002 -7.38943249830637 -0.50418794359038
2025-02-01T13:46:27.243 -4329.012019994470 -394.124029585122 -5226.579445250820 -0.65224455391224 -7.54442567797468 1.10826028486969
2025-02-01T13:50:27.242 -4326.842969912050 -2168.591292714640 -4773.958728413610 0.67035110729368 -7.15282142751233 2.64073154053051
2025-02-01T13:54:27.243 -4011.050224108320 -3785.854673203870 -3974.324176995120 1.94545720766001 -6.24217415938612 3.98244220705758
2025-02-01T13:58:27.242 -3404.233001111050 -5128.408967982250 -2885.515217797100 3.08076243784401 -4.87732257609349 5.03572235252320
